IRIDIUM 159             
1 43578U 18061K   25246.24829240  .00000578  00000+0  19940-3 0  9998
2 43578  86.4040 176.6161 0002128  78.2783 281.8651 14.34226122372254
IRIDIUM 180             
1 43922U 19002A   25246.03850535  .00000056  00000+0  12774-4 0  9995
2 43922  86.3950 113.6661 0001991  86.8892 273.2532 14.34217914347833
IRIDIUM 176             
1 43923U 19002B   25246.06339197  .00001634  00000+0  25521-3 0  9991
2 43923  86.6074 113.6410 0002520 101.0144 259.1357 14.72257218357006
IRIDIUM 168             
1 43924U 19002C   25245.96239521 -.00000033  00000+0 -18932-4 0  9993
2 43924  86.3952 113.7668 0001965  86.3983 273.7438 14.34217108347804
IRIDIUM 173             
1 43925U 19002D   25246.01947753 -.00000296  00000+0 -11277-3 0  9999
2 43925  86.3947 113.6435 0001862  89.4001 270.7408 14.34216573347798
IRIDIUM 169             
1 43926U 19002E   25246.19557151  .00000522  00000+0  16427-3 0  9990
2 43926  86.4274 145.1825 0002421 116.3932 243.7515 14.38612216348968
IRIDIUM 172             
1 43927U 19002F   25246.01313518  .00000007  00000+0 -46434-5 0  9991
2 43927  86.3947 113.6530 0001739  81.3586 278.7807 14.34217310347801
IRIDIUM 175             
1 43928U 19002G   25246.19442497  .00000786  00000+0  12062-3 0  9991
2 43928  86.1456  61.6377 0003145  90.6845 269.4732 14.72249511357018
